[{"OBJECT_NAME":"JILIN-1 GAOFEN 2B","OBJECT_ID":"2019-086A","EPOCH":"2026-03-09T22:43:01.900128","MEAN_MOTION":15.19449314,"ECCENTRICITY":0.001314,"INCLINATION":97.496,"RA_OF_ASC_NODE":141.6146,"ARG_OF_PERICENTER":308.9475,"MEAN_ANOMALY":51.0588,"EPHEMERIS_TYPE":0,"CLASSIFICATION_TYPE":"U","NORAD_CAT_ID":44836,"ELEMENT_SET_NO":999,"REV_AT_EPOCH":34541,"BSTAR":0.00041762488,"MEAN_MOTION_DOT":8.807e-5,"MEAN_MOTION_DDOT":0},{"OBJECT_NAME":"STARLINK-30201","OBJECT_ID":"2023-096M","EPOCH":"2026-03-09T22:00:01.999584","MEAN_MOTION":15.15735537,"ECCENTRICITY":0.00012732,"INCLINATION":43.0006,"RA_OF_ASC_NODE":221.3396,"ARG_OF_PERICENTER":317.2195,"MEAN_ANOMALY":216.3759,"EPHEMERIS_TYPE":0,"CLASSIFICATION_TYPE":"U","NORAD_CAT_ID":57301,"ELEMENT_SET_NO":999,"REV_AT_EPOCH":572,"BSTAR":0.0062653027,"MEAN_MOTION_DOT":0.00123499,"MEAN_MOTION_DDOT":0}]
